{
"type": "FeatureCollection",
"name": "oconee_april_2026",
"crs": { "type": "name", "properties": { "name": "urn:ogc:def:crs:EPSG::3857" } },
"features": [
{ "type": "Feature", "properties": { "fid": 1, "Id": "C135" }, "geometry": { "type": "Polygon", "coordinates": [ [ [ -9297741.935888405889273, 3920113.430408231914043 ], [ -9296959.473956219851971, 3920426.415181105956435 ], [ -9296162.785443449392915, 3919681.890797147992998 ], [ -9296162.785443449392915, 3919681.890797147992998 ], [ -9296096.394734052941203, 3919297.773121347650886 ], [ -9295764.441187065094709, 3919188.702670194674283 ], [ -9295223.831124827265739, 3919373.648217801935971 ], [ -9294778.064933158457279, 3919596.531313636805862 ], [ -9293791.688679251819849, 3919919.000473567750305 ], [ -9293791.688679251819849, 3919919.000473567750305 ], [ -9294284.876806205138564, 3920767.85311515070498 ], [ -9294370.236289715394378, 3921616.705756733659655 ], [ -9294237.454870920628309, 3922631.535171810537577 ], [ -9294659.510094948112965, 3923660.591167472302914 ], [ -9294929.81512606702745, 3924186.974649124313146 ], [ -9295546.300284758210182, 3924718.100324304774404 ], [ -9295835.574089990928769, 3924623.256453736685216 ], [ -9296162.785443449392915, 3924011.513488573487848 ], [ -9296608.55163512006402, 3923034.62162172421813 ], [ -9297016.380278561264277, 3922380.198914805427194 ], [ -9297196.5836326405406, 3921654.643304960802197 ], [ -9297514.310599042102695, 3920962.283049814868718 ], [ -9297504.826211985200644, 3920687.235825167968869 ], [ -9297741.935888405889273, 3920113.430408231914043 ] ] ] } },
{ "type": "Feature", "properties": { "fid": 2, "Id": "C156" }, "geometry": { "type": "Polygon", "coordinates": [ [ [ -9284933.875526923686266, 3948841.69405715027824 ], [ -9284516.171486180275679, 3949023.850706496741623 ], [ -9284255.499039702117443, 3949165.179141334723681 ], [ -9283404.38779878988862, 3949124.350926825776696 ], [ -9283404.38779878988862, 3949124.350926825776696 ], [ -9283018.090076899155974, 3948769.459523788653314 ], [ -9282556.417189761996269, 3948694.084358541760594 ], [ -9282386.823067957535386, 3948244.973998945672065 ], [ -9282386.823067957535386, 3948244.973998945672065 ], [ -9282022.509769262745976, 3947478.659818935673684 ], [ -9281799.52490540780127, 3947601.144462462048978 ], [ -9281425.789711060002446, 3947230.549899998120964 ], [ -9280590.381629573181272, 3947466.097291394602507 ], [ -9280420.787507766857743, 3948493.083917883224785 ], [ -9280376.818661373108625, 3949353.617054451722652 ], [ -9280810.225861543789506, 3950286.384724381845444 ], [ -9280866.7572354786098, 3950848.557831848040223 ], [ -9281278.180012451484799, 3951212.871130541432649 ], [ -9282503.026447711512446, 3950876.823518815916032 ], [ -9282729.151943452656269, 3950569.041594057809561 ], [ -9282807.667740585282445, 3950298.947251922916621 ], [ -9283171.981039278209209, 3950207.86892724968493 ], [ -9283058.918291408568621, 3949925.212057574186474 ], [ -9283778.122993137687445, 3949846.696260442025959 ], [ -9284965.281845776364207, 3949306.50757617270574 ], [ -9284933.875526923686266, 3948841.69405715027824 ] ] ] } },
{ "type": "Feature", "properties": { "fid": 3, "Id": "C180" }, "geometry": { "type": "Polygon", "coordinates": [ [ [ -9270787.812100410461426, 3981381.927953141275793 ], [ -9270787.812100410461426, 3981381.927953141275793 ], [ -9270540.803154692053795, 3981319.656790355220437 ], [ -9270374.746720595285296, 3981226.250046176370233 ], [ -9269729.202333046123385, 3981325.883906634058803 ], [ -9269729.202333046123385, 3981325.883906634058803 ], [ -9269436.527867950499058, 3981502.318867861293256 ], [ -9269170.837573397904634, 3981508.545984139665961 ], [ -9268556.428767241537571, 3981919.535658528096974 ], [ -9268182.801790524274111, 3982384.493673997931182 ], [ -9268045.805232394486666, 3982670.941022813785821 ], [ -9268303.192705243825912, 3983110.990573169197887 ], [ -9268836.648999778553843, 3983555.191534376703203 ], [ -9269268.395728427916765, 3983874.850170012097806 ], [ -9269617.114240031689405, 3983935.045627371873707 ], [ -9269994.892627600580454, 3983908.061456831172109 ], [ -9270472.304875627160072, 3983683.885270801372826 ], [ -9270920.657247686758637, 3983422.346387099474669 ], [ -9270870.840317457914352, 3982917.949968532193452 ], [ -9270721.389526771381497, 3982722.833658468909562 ], [ -9270955.944239933043718, 3982471.673301898408681 ], [ -9271030.669635275378823, 3982326.373922063969076 ], [ -9270862.537495752796531, 3982068.986449214629829 ], [ -9271119.924968602135777, 3982087.667798050679266 ], [ -9271215.407418208196759, 3981836.507441480178386 ], [ -9271217.483123634010553, 3981282.294092683587223 ], [ -9270787.812100410461426, 3981381.927953141275793 ] ] ] } }
]
}
